$$SOE
2460147.500000000, A.D. 2023-Jul-22 00:00:00.0000, -9.866825820180760E+07, -2.575683443356132E+08, 5.636378458340020E+07,
2460154.500000000, A.D. 2023-Jul-29 00:00:00.0000, -8.641947808204865E+07, -2.603782981802739E+08, 6.032123806902791E+07,
2460161.500000000, A.D. 2023-Aug-05 00:00:00.0000, -7.398152178339635E+07, -2.626180532649934E+08, 6.414658552396957E+07,
2460168.500000000, A.D. 2023-Aug-12 00:00:00.0000, -6.138055376078421E+07, -2.642788882595594E+08, 6.783051750777942E+07,
2460175.500000000, A.D. 2023-Aug-19 00:00:00.0000, -4.864345972867710E+07, -2.653532942619090E+08, 7.136392519451219E+07,
2460182.500000000, A.D. 2023-Aug-26 00:00:00.0000, -3.579779648122059E+07, -2.658350258155259E+08, 7.473792905844581E+07,
2460189.500000000, A.D. 2023-Sep-02 00:00:00.0000, -2.287173695429781E+07, -2.657191501023856E+08, 7.794390815872595E+07,
2460196.500000000, A.D. 2023-Sep-09 00:00:00.0000, -9.894010443052776E+06, -2.650020939265411E+08, 8.097352989312287E+07,
2460203.500000000, A.D. 2023-Sep-16 00:00:00.0000, 3.106162198685964E+06, -2.636816881013137E+08, 8.381878006339790E+07,
2460210.500000000, A.D. 2023-Sep-23 00:00:00.0000, 1.609913875335878E+07, -2.617572084918804E+08, 8.647199308342056E+07,
2460217.500000000, A.D. 2023-Sep-30 00:00:00.0000, 2.905493080124074E+07, -2.592294120505820E+08, 8.892588228816848E+07,
2460224.500000000, A.D. 2023-Oct-07 00:00:00.0000, 4.194328135512184E+07, -2.561005679091780E+08, 9.117357032852471E+07,
2460231.500000000, A.D. 2023-Oct-14 00:00:00.0000, 5.473374581626552E+07, -2.523744863630069E+08, 9.320861908452338E+07,
2460238.500000000, A.D. 2023-Oct-21 00:00:00.0000, 6.739577923370418E+07, -2.480565436785410E+08, 9.502505872222023E+07,
2460245.500000000, A.D. 2023-Oct-28 00:00:00.0000, 7.989882813556507E+07, -2.431537000150548E+08, 9.661741599244894E+07,
2460252.500000000, A.D. 2023-Nov-04 00:00:00.0000, 9.221242531512545E+07, -2.376745108007525E+08, 9.798074159701850E+07,
2460259.500000000, A.D. 2023-Nov-11 00:00:00.0000, 1.043062873236254E+08, -2.316291317608636E+08, 9.911063632451546E+07,
2460266.500000000, A.D. 2023-Nov-18 00:00:00.0000, 1.161504144064115E+08, -2.250293172963591E+08, 1.000032756949014E+08,
2460273.500000000, A.D. 2023-Nov-25 00:00:00.0000, 1.277151924164308E+08, -2.178884118691245E+08, 1.006554328717776E+08,
2460280.500000000, A.D. 2023-Dec-02 00:00:00.0000, 1.389714961429340E+08, -2.102213341331499E+08, 1.010644996032378E+08,
2460287.500000000, A.D. 2023-Dec-09 00:00:00.0000, 1.498907934992829E+08, -2.020445536551137E+08, 1.012285049493781E+08,
2460294.500000000, A.D. 2023-Dec-16 00:00:00.0000, 1.604452501866321E+08, -1.933760600615072E+08, 1.011461315555667E+08,
2460301.500000000, A.D. 2023-Dec-23 00:00:00.0000, 1.706078344767235E+08, -1.842353238491350E+08, 1.008167292990409E+08,
2460308.500000000, A.D. 2023-Dec-30 00:00:00.0000, 1.803524200382574E+08, -1.746432478118752E+08, 1.002403263368600E+08,
2460315.500000000, A.D. 2024-Jan-06 00:00:00.0000, 1.896538842790106E+08, -1.646221115216727E+08, 9.941763735783973E+07,
2460322.500000000, A.D. 2024-Jan-13 00:00:00.0000, 1.984882046161675E+08, -1.541955108228024E+08, 9.835006845288984E+07,
2460329.500000000, A.D. 2024-Jan-20 00:00:00.0000, 2.068325531463632E+08, -1.433882894900733E+08, 9.703971862818526E+07,
2460336.500000000, A.D. 2024-Jan-27 00:00:00.0000, 2.146653869488277E+08, -1.322264627196510E+08, 9.548937811778207E+07,
2460343.500000000, A.D. 2024-Feb-03 00:00:00.0000, 2.219665328782763E+08, -1.207371338019858E+08, 9.370252340497507E+07,
2460350.500000000, A.D. 2024-Feb-10 00:00:00.0000, 2.287172664449165E+08, -1.089484047441494E+08, 9.168330888262230E+07,
2460357.500000000, A.D. 2024-Feb-17 00:00:00.0000, 2.349003842864836E+08, -9.688928138070183E+07, 8.943655515385425E+07,
2460364.500000000, A.D. 2024-Feb-24 00:00:00.0000, 2.405002696907760E+08, -8.458957357048699E+07, 8.696773401968989E+07,
2460371.500000000, A.D. 2024-Mar-02 00:00:00.0000, 2.455029506856031E+08, -7.207979118283100E+07, 8.428295023167138E+07,
2460378.500000000, A.D. 2024-Mar-09 00:00:00.0000, 2.498961503926448E+08, -5.939103665747800E+07, 8.138892010628745E+07,
2460385.500000000, A.D. 2024-Mar-16 00:00:00.0000, 2.536693296718487E+08, -4.655489469650524E+07, 7.829294712244231E+07,
2460392.500000000, A.D. 2024-Mar-23 00:00:00.0000, 2.568137216732302E+08, -3.360331875246838E+07, 7.500289477920964E+07,
2460399.500000000, A.D. 2024-Mar-30 00:00:00.0000, 2.593223558789047E+08, -2.056851513925697E+07, 7.152715713638645E+07,
2460406.500000000, A.D. 2024-Apr-06 00:00:00.0000, 2.611900718010444E+08, -7.482828954086952E+06, 6.787462697602685E+07,
2460413.500000000, A.D. 2024-Apr-13 00:00:00.0000, 2.624135258744098E+08, 5.621368216517776E+06, 6.405466157334928E+07,
2460420.500000000, A.D. 2024-Apr-20 00:00:00.0000, 2.629911906700988E+08, 1.871179069181006E+07, 6.007704664632230E+07,
2460427.500000000, A.D. 2024-Apr-27 00:00:00.0000, 2.629233450749904E+08, 3.175634985986798E+07, 5.595195884840555E+07,
2460434.500000000, A.D. 2024-May-04 00:00:00.0000, 2.622120557531313E+08, 4.472326267509112E+07, 5.168992701052140E+07,
2460441.500000000, A.D. 2024-May-11 00:00:00.0000, 2.608611504240879E+08, 5.758115672190125E+07, 4.730179238329612E+07,
2460448.500000000, A.D. 2024-May-18 00:00:00.0000, 2.588761834197842E+08, 7.029917126609586E+07, 4.279866817553857E+07,
2460455.500000000, A.D. 2024-May-25 00:00:00.0000, 2.562643940099967E+08, 8.284705373863603E+07, 3.819189870020527E+07,
2460462.500000000, A.D. 2024-Jun-01 00:00:00.0000, 2.530346580872170E+08, 9.519525109255342E+07, 3.349301842165625E+07,
2460469.500000000, A.D. 2024-Jun-08 00:00:00.0000, 2.491974340280663E+08, 1.073149955648584E+08, 2.871371115915346E+07,
2460476.500000000, A.D. 2024-Jun-15 00:00:00.0000, 2.447647037201971E+08, 1.191783850077403E+08, 2.386576970682514E+07,
2460483.500000000, A.D. 2024-Jun-22 00:00:00.0000, 2.397499083354294E+08, 1.307584586627578E+08, 1.896105628992773E+07,
2460490.500000000, A.D. 2024-Jun-29 00:00:00.0000, 2.341678773424316E+08, 1.420292663566192E+08, 1.401146412935171E+07,
2460497.500000000, A.D. 2024-Jul-06 00:00:00.0000, 2.280347540571336E+08, 1.529659285064950E+08, 9.028879877247728E+06,
2460504.500000000, A.D. 2024-Jul-13 00:00:00.0000, 2.213679203068881E+08, 1.635446896690563E+08, 4.025147153568625E+06,
2460511.500000000, A.D. 2024-Jul-20 00:00:00.0000, 2.141859188322256E+08, 1.737429667674727E+08, -9.879683814360648E+05,
2460518.500000000, A.D. 2024-Jul-27 00:00:00.0000, 2.065083733736262E+08, 1.835393910870838E+08, -5.998812298541285E+06,
2460525.500000000, A.D. 2024-Aug-03 00:00:00.0000, 1.983559073000208E+08, 1.929138437692944E+08, -1.099587295579194E+07,
2460532.500000000, A.D. 2024-Aug-10 00:00:00.0000, 1.897500615002135E+08, 2.018474849533966E+08, -1.596781126452780E+07,
2460539.500000000, A.D. 2024-Aug-17 00:00:00.0000, 1.807132121070573E+08, 2.103227767865634E+08, -2.090348860007975E+07,
2460546.500000000, A.D. 2024-Aug-24 00:00:00.0000, 1.712684885683326E+08, 2.183235005165005E+08, -2.579199281569877E+07,
2460553.500000000, A.D. 2024-Aug-31 00:00:00.0000, 1.614396926270695E+08, 2.258347678744870E+08, -3.062266234960985E+07,
2460560.500000000, A.D. 2024-Sep-07 00:00:00.0000, 1.512512189849108E+08, 2.328430271729234E+08, -3.538510844103116E+07,
2460567.500000000, A.D. 2024-Sep-14 00:00:00.0000, 1.407279781060928E+08, 2.393360654295497E+08, -4.006923539120664E+07,
2460574.500000000, A.D. 2024-Sep-21 00:00:00.0000, 1.298953194546724E+08, 2.453030072444723E+08, -4.466525866760445E+07,
2460581.500000000, A.D. 2024-Sep-28 00:00:00.0000, 1.187789549372686E+08, 2.507343075440238E+08, -4.916372109492464E+07,
2460588.500000000, A.D. 2024-Oct-05 00:00:00.0000, 1.074048864660314E+08, 2.556217385715975E+08, -5.355550751929940E+07,
2460595.500000000, A.D. 2024-Oct-12 00:00:00.0000, 9.579933749009636E+07, 2.599583744596882E+08, -5.783185773207588E+07,
2460602.500000000, A.D. 2024-Oct-19 00:00:00.0000, 8.398868689794868E+07, 2.637385734584426E+08, -6.198437758389523E+07,
2460609.500000000, A.D. 2024-Oct-26 00:00:00.0000, 7.199940537644592E+07, 2.669579573662465E+08, -6.600504843163606E+07,
2460616.500000000, A.D. 2024-Nov-02 00:00:00.0000, 5.985799457039711E+07, 2.696133883508146E+08, -6.988623504143946E+07,
2460623.500000000, A.D. 2024-Nov-09 00:00:00.0000, 4.759092919405966E+07, 2.717029435044805E+08, -7.362069204640496E+07,
2460630.500000000, A.D. 2024-Nov-16 00:00:00.0000, 3.522460214539630E+07, 2.732258874421413E+08, -7.720156905501071E+07,
2460637.500000000, A.D. 2024-Nov-23 00:00:00.0000, 2.278527266790619E+07, 2.741826431844063E+08, -8.062241451366667E+07,
2460644.500000000, A.D. 2024-Nov-30 00:00:00.0000, 1.029901774183185E+07, 2.745747615590588E+08, -8.387717844146588E+07,
2460651.500000000, A.D. 2024-Dec-07 00:00:00.0000, -2.208312924246773E+06, 2.744048898011670E+08, -8.696021413709168E+07,
2460658.500000000, A.D. 2024-Dec-14 00:00:00.0000, -1.471113905393283E+07, 2.736767408205646E+08, -8.986627879205909E+07,
2460665.500000000, A.D. 2024-Dec-21 00:00:00.0000, -2.718419150527867E+07, 2.723950621118590E+08, -9.259053298772874E+07,
2460672.500000000, A.D. 2024-Dec-28 00:00:00.0000, -3.960255164199825E+07, 2.705656015244426E+08, -9.512853957121219E+07,
2460679.500000000, A.D. 2025-Jan-04 00:00:00.0000, -5.194168590043112E+07, 2.681950724582932E+08, -9.747626203774659E+07,
2460686.500000000, A.D. 2025-Jan-11 00:00:00.0000, -6.417747749176318E+07, 2.652911203180709E+08, -9.963006220294753E+07,
2460693.500000000, A.D. 2025-Jan-18 00:00:00.0000, -7.628625628505211E+07, 2.618622894496838E+08, -1.015866972319768E+08,
2460700.500000000, A.D. 2025-Jan-25 00:00:00.0000, -8.824482676495448E+07, 2.579179902134186E+08, -1.033433161636875E+08,
2460707.500000000, A.D. 2025-Feb-01 00:00:00.0000, -1.000304940095446E+08, 2.534684662777380E+08, -1.048974560252886E+08,
2460714.500000000, A.D. 2025-Feb-08 00:00:00.0000, -1.116210877600403E+08, 2.485247622491747E+08, -1.062470376080604E+08,
$$EOE